[{"OBJECT_NAME":"TDRS 3","OBJECT_ID":"1988-091B","EPOCH":"2026-03-29T02:31:50.436768","MEAN_MOTION":1.00269319,"ECCENTRICITY":0.0042579,"INCLINATION":12.6626,"RA_OF_ASC_NODE":341.5316,"ARG_OF_PERICENTER":354.9457,"MEAN_ANOMALY":199.0723,"EPHEMERIS_TYPE":0,"CLASSIFICATION_TYPE":"U","NORAD_CAT_ID":19548,"ELEMENT_SET_NO":999,"REV_AT_EPOCH":12458,"BSTAR":0,"MEAN_MOTION_DOT":-3.12e-6,"MEAN_MOTION_DDOT":0},{"OBJECT_NAME":"HST","OBJECT_ID":"1990-037B","EPOCH":"2026-03-29T04:32:59.354304","MEAN_MOTION":15.29783443,"ECCENTRICITY":0.0001756,"INCLINATION":28.4724,"RA_OF_ASC_NODE":266.9491,"ARG_OF_PERICENTER":354.8838,"MEAN_ANOMALY":5.174,"EPHEMERIS_TYPE":0,"CLASSIFICATION_TYPE":"U","NORAD_CAT_ID":20580,"ELEMENT_SET_NO":999,"REV_AT_EPOCH":77630,"BSTAR":0.00034286,"MEAN_MOTION_DOT":0.00010418,"MEAN_MOTION_DDOT":0},{"OBJECT_NAME":"TDRS 5","OBJECT_ID":"1991-054B","EPOCH":"2026-03-28T06:08:02.404032","MEAN_MOTION":1.00275572,"ECCENTRICITY":0.0009589,"INCLINATION":14.0818,"RA_OF_ASC_NODE":354.3784,"ARG_OF_PERICENTER":279.2122,"MEAN_ANOMALY":196.4212,"EPHEMERIS_TYPE":0,"CLASSIFICATION_TYPE":"U","NORAD_CAT_ID":21639,"ELEMENT_SET_NO":999,"REV_AT_EPOCH":12690,"BSTAR":0,"MEAN_MOTION_DOT":7.2e-7,"MEAN_MOTION_DDOT":0},{"OBJECT_NAME":"TDRS 6","OBJECT_ID":"1993-003B","EPOCH":"2026-03-28T21:19:27.384960","MEAN_MOTION":1.0026987,"ECCENTRICITY":0.0005043,"INCLINATION":14.1817,"RA_OF_ASC_NODE":357.6547,"ARG_OF_PERICENTER":185.4414,"MEAN_ANOMALY":277.229,"EPHEMERIS_TYPE":0,"CLASSIFICATION_TYPE":"U","NORAD_CAT_ID":22314,"ELEMENT_SET_NO":999,"REV_AT_EPOCH":12160,"BSTAR":0,"MEAN_MOTION_DOT":-3.08e-6,"MEAN_MOTION_DDOT":0},{"OBJECT_NAME":"TDRS 7","OBJECT_ID":"1995-035B","EPOCH":"2026-03-28T17:19:38.578656","MEAN_MOTION":1.00270113,"ECCENTRICITY":0.00092198,"INCLINATION":13.4109,"RA_OF_ASC_NODE":348.7422,"ARG_OF_PERICENTER":54.013,"MEAN_ANOMALY":132.357,"EPHEMERIS_TYPE":0,"CLASSIFICATION_TYPE":"U","NORAD_CAT_ID":23613,"ELEMENT_SET_NO":999,"REV_AT_EPOCH":11244,"BSTAR":0,"MEAN_MOTION_DOT":-2.51e-6,"MEAN_MOTION_DDOT":0},{"OBJECT_NAME":"ISS (ZARYA)","OBJECT_ID":"1998-067A","EPOCH":"2026-03-29T03:11:03.043104","MEAN_MOTION":15.4862434,"ECCENTRICITY":0.0006215,"INCLINATION":51.6344,"RA_OF_ASC_NODE":336.2407,"ARG_OF_PERICENTER":245.2164,"MEAN_ANOMALY":114.8178,"EPHEMERIS_TYPE":0,"CLASSIFICATION_TYPE":"U","NORAD_CAT_ID":25544,"ELEMENT_SET_NO":999,"REV_AT_EPOCH":55934,"BSTAR":0.00023326,"MEAN_MOTION_DOT":0.0001226,"MEAN_MOTION_DDOT":0},{"OBJECT_NAME":"TERRA","OBJECT_ID":"1999-068A","EPOCH":"2026-03-29T04:00:15.432192","MEAN_MOTION":14.61034969,"ECCENTRICITY":0.0003577,"INCLINATION":97.9552,"RA_OF_ASC_NODE":140.8535,"ARG_OF_PERICENTER":110.9538,"MEAN_ANOMALY":318.4372,"EPHEMERIS_TYPE":0,"CLASSIFICATION_TYPE":"U","NORAD_CAT_ID":25994,"ELEMENT_SET_NO":999,"REV_AT_EPOCH":39792,"BSTAR":0.00010519,"MEAN_MOTION_DOT":4.72e-6,"MEAN_MOTION_DDOT":0},{"OBJECT_NAME":"TDRS 8","OBJECT_ID":"2000-034A","EPOCH":"2026-03-28T20:19:18.742080","MEAN_MOTION":1.00271852,"ECCENTRICITY":0.00059588,"INCLINATION":12.5584,"RA_OF_ASC_NODE":31.9922,"ARG_OF_PERICENTER":326.0757,"MEAN_ANOMALY":217.9209,"EPHEMERIS_TYPE":0,"CLASSIFICATION_TYPE":"U","NORAD_CAT_ID":26388,"ELEMENT_SET_NO":999,"REV_AT_EPOCH":9437,"BSTAR":0,"MEAN_MOTION_DOT":-2.07e-6,"MEAN_MOTION_DDOT":0},{"OBJECT_NAME":"TIMED","OBJECT_ID":"2001-055B","EPOCH":"2026-03-29T04:26:54.267648","MEAN_MOTION":14.95087854,"ECCENTRICITY":0.0002768,"INCLINATION":74.069,"RA_OF_ASC_NODE":36.0776,"ARG_OF_PERICENTER":250.6198,"MEAN_ANOMALY":109.4688,"EPHEMERIS_TYPE":0,"CLASSIFICATION_TYPE":"U","NORAD_CAT_ID":26998,"ELEMENT_SET_NO":999,"REV_AT_EPOCH":31886,"BSTAR":0.0001856,"MEAN_MOTION_DOT":1.995e-5,"MEAN_MOTION_DDOT":0},{"OBJECT_NAME":"AQUA","OBJECT_ID":"2002-022A","EPOCH":"2026-03-29T04:41:15.252288","MEAN_MOTION":14.6202158,"ECCENTRICITY":0.0001155,"INCLINATION":98.4206,"RA_OF_ASC_NODE":55.9204,"ARG_OF_PERICENTER":117.6858,"MEAN_ANOMALY":331.7498,"EPHEMERIS_TYPE":0,"CLASSIFICATION_TYPE":"U","NORAD_CAT_ID":27424,"ELEMENT_SET_NO":999,"REV_AT_EPOCH":27158,"BSTAR":0.00025591,"MEAN_MOTION_DOT":1.234e-5,"MEAN_MOTION_DDOT":0},{"OBJECT_NAME":"SORCE","OBJECT_ID":"2003-004A","EPOCH":"2026-03-29T03:58:08.460480","MEAN_MOTION":15.03244973,"ECCENTRICITY":0.0017602,"INCLINATION":39.9926,"RA_OF_ASC_NODE":358.0762,"ARG_OF_PERICENTER":202.2129,"MEAN_ANOMALY":157.7904,"EPHEMERIS_TYPE":0,"CLASSIFICATION_TYPE":"U","NORAD_CAT_ID":27651,"ELEMENT_SET_NO":999,"REV_AT_EPOCH":25985,"BSTAR":0.00034597,"MEAN_MOTION_DOT":4.635e-5,"MEAN_MOTION_DDOT":0},{"OBJECT_NAME":"AURA","OBJECT_ID":"2004-026A","EPOCH":"2026-03-29T03:28:46.432704","MEAN_MOTION":14.61193359,"ECCENTRICITY":0.0001315,"INCLINATION":98.3341,"RA_OF_ASC_NODE":43.9784,"ARG_OF_PERICENTER":94.6351,"MEAN_ANOMALY":265.4999,"EPHEMERIS_TYPE":0,"CLASSIFICATION_TYPE":"U","NORAD_CAT_ID":28376,"ELEMENT_SET_NO":999,"REV_AT_EPOCH":15452,"BSTAR":0.00026151,"MEAN_MOTION_DOT":1.24e-5,"MEAN_MOTION_DDOT":0},{"OBJECT_NAME":"SWIFT","OBJECT_ID":"2004-047A","EPOCH":"2026-03-29T01:07:24.756384","MEAN_MOTION":15.61060012,"ECCENTRICITY":0.0003093,"INCLINATION":20.5537,"RA_OF_ASC_NODE":79.6941,"ARG_OF_PERICENTER":272.0409,"MEAN_ANOMALY":87.9682,"EPHEMERIS_TYPE":0,"CLASSIFICATION_TYPE":"U","NORAD_CAT_ID":28485,"ELEMENT_SET_NO":999,"REV_AT_EPOCH":17429,"BSTAR":0.00057796,"MEAN_MOTION_DOT":0.00051925,"MEAN_MOTION_DDOT":0},{"OBJECT_NAME":"THEMIS A","OBJECT_ID":"2007-004A","EPOCH":"2026-03-28T22:05:20.438880","MEAN_MOTION":0.87845725,"ECCENTRICITY":0.8393558,"INCLINATION":7.1639,"RA_OF_ASC_NODE":117.2338,"ARG_OF_PERICENTER":183.0367,"MEAN_ANOMALY":161.9354,"EPHEMERIS_TYPE":0,"CLASSIFICATION_TYPE":"U","NORAD_CAT_ID":30580,"ELEMENT_SET_NO":999,"REV_AT_EPOCH":4057,"BSTAR":-0.00033704,"MEAN_MOTION_DOT":3.3e-7,"MEAN_MOTION_DDOT":0},{"OBJECT_NAME":"THEMIS D","OBJECT_ID":"2007-004D","EPOCH":"2026-03-28T19:50:41.758080","MEAN_MOTION":0.87835026,"ECCENTRICITY":0.8348023,"INCLINATION":6.9062,"RA_OF_ASC_NODE":83.7001,"ARG_OF_PERICENTER":219.3021,"MEAN_ANOMALY":118.6591,"EPHEMERIS_TYPE":0,"CLASSIFICATION_TYPE":"U","NORAD_CAT_ID":30797,"ELEMENT_SET_NO":999,"REV_AT_EPOCH":4037,"BSTAR":0,"MEAN_MOTION_DOT":-4.5e-7,"MEAN_MOTION_DDOT":0},{"OBJECT_NAME":"THEMIS E","OBJECT_ID":"2007-004E","EPOCH":"2026-03-22T02:34:14.937312","MEAN_MOTION":0.87837115,"ECCENTRICITY":0.83542441,"INCLINATION":4.4028,"RA_OF_ASC_NODE":99.1325,"ARG_OF_PERICENTER":204.1504,"MEAN_ANOMALY":168.435,"EPHEMERIS_TYPE":0,"CLASSIFICATION_TYPE":"U","NORAD_CAT_ID":30798,"ELEMENT_SET_NO":999,"REV_AT_EPOCH":6515,"BSTAR":0,"MEAN_MOTION_DOT":-1.02e-6,"MEAN_MOTION_DDOT":0},{"OBJECT_NAME":"FGRST (GLAST)","OBJECT_ID":"2008-029A","EPOCH":"2026-03-29T04:51:36.538272","MEAN_MOTION":15.23478131,"ECCENTRICITY":0.0008604,"INCLINATION":25.5833,"RA_OF_ASC_NODE":39.666,"ARG_OF_PERICENTER":101.8514,"MEAN_ANOMALY":258.299,"EPHEMERIS_TYPE":0,"CLASSIFICATION_TYPE":"U","NORAD_CAT_ID":33053,"ELEMENT_SET_NO":999,"REV_AT_EPOCH":98362,"BSTAR":0.00020199,"MEAN_MOTION_DOT":5.299e-5,"MEAN_MOTION_DDOT":0}]
